COSMOS 2251 DEB         
1 35609U 93036ANC 17345.11732289  .00091586  00000-0  16716-2 0  9999
2 35609  73.9697 261.4105 0011749 170.5277 189.6159 15.48943167462274
